STARLINK-32734          
1 62476U 24254Q   26068.24736274  .00038972  00000+0  14177-2 0  9999
2 62476  43.0040  19.0143 0001594 252.3822 107.6856 15.27593191 67581
OTTER                   
1 62623U 25009Q   26068.72300813  .00012198  00000+0  45151-3 0  9990
2 62623  97.4065 151.3812 0003573 310.7710  49.3219 15.27809545 63722
